[
    {
        "Altitude(m)": 604983.0529289985,
        "Argument of Periapsis(deg)": 0.0,
        "Eccentricity": 0.0,
        "Inclination(deg)": 60.0,
        "Latitude(deg)": -0.09261435336479401,
        "Longitude(deg)": 20.083916546603234,
        "Mean Anomaly(deg)": -179.99999999999994,
        "RAAN(deg)": 300.0,
        "Satellite Name": "Test1 1331",
        "Satellite Number": 1331,
        "Semi-Major Axis(m)": 6980739.136638005,
        "Time(s)": 0
    },
    {
        "Altitude(m)": 605055.3321511821,
        "Argument of Periapsis(deg)": 0.00010418945913296404,
        "Eccentricity": 0.0,
        "Inclination(deg)": 60.0,
        "Latitude(deg)": -0.6330238011323975,
        "Longitude(deg)": 20.352042306008784,
        "Mean Anomaly(deg)": -179.37989385453818,
        "RAAN(deg)": 299.99957995086027,
        "Satellite Name": "Test1 1331",
        "Satellite Number": 1331,
        "Semi-Major Axis(m)": 6980739.136638005,
        "Time(s)": 10
    }
]